#aV2024  7 12  0  0  0.00000000     288 DD+AD WGS84 FIT  NGA
## 2322 432000.00000000   300.00000000 60503 0.0000000000000
+   31     2  3  4  5  6  7  8  9 10 11 12 13 14 15 16 17 18
+         19 20 21 22 23 24 25 26 27 28 29 30 31 32  0  0  0
+          0  0  0  0  0  0  0  0  0  0  0  0  0  0  0  0  0
+          0  0  0  0  0  0  0  0  0  0  0  0  0  0  0  0  0
+          0  0  0  0  0  0  0  0  0  0  0  0  0  0  0  0  0
++         2  2  2  2  2  2  2  2  2  2  2  2  2  2  2  2  2
++         2  2  2  2  2  2  2  2  2  2  2  2  2  2  0  0  0
++         0  0  0  0  0  0  0  0  0  0  0  0  0  0  0  0  0
++         0  0  0  0  0  0  0  0  0  0  0  0  0  0  0  0  0
++         0  0  0  0  0  0  0  0  0  0  0  0  0  0  0  0  0
%c cc cc ccc ccc cccc cccc cccc cccc ccccc ccccc ccccc ccccc
%c cc cc ccc ccc cccc cccc cccc cccc ccccc ccccc ccccc ccccc
%f  0.0000000  0.000000000  0.00000000000  0.000000000000000
%f  0.0000000  0.000000000  0.00000000000  0.000000000000000
%i    0    0    0    0      0      0      0      0         0
%i    0    0    0    0      0      0      0      0         0
/*      NGA, ST. LOUIS,MO.                                  
/*   EPHEMERIS COMPUTED FROM 2 DAYS OF DATA                 
/*   EPOCHA v9 SMOOTHER                                     
/*   G2296 IERS2010 SATIGS SATAPC                           
*  2024  7 12 16 30  0.00000000
P  2   8481.281986  13592.378838 -20767.177620   -400.388570                    
V  2 -27210.694483   3174.979823  -8538.013362      0.073272                    
P  3  12681.192537  23387.907872  -1229.440582    454.989753                    
V  3  -2355.175277   -194.138389 -32155.012505      0.165182                    
P  4   3919.359941  18383.096551  18727.281882    402.330994                    
V  4 -13668.598379  19513.597531 -16440.938518      0.077983                    
P  5  -1883.771169 -21635.513426  15051.209970   -179.503024                    
V  5  12234.408734  15235.404331  23227.619383     -0.013173                    
P  6  24667.407145  -5398.999326   8470.897671    165.692940                    
V  6  10599.285662   1731.847296 -29871.258421     -0.226586                    
P  7  23991.667214   7050.781326  10128.177786    -71.443893                    
V  7 -11961.606322   2417.942129  27660.269800      0.078813                    
P  8  -3981.586779  23868.471095 -10549.778401    271.288284                    
V  8  -8838.497774  10499.978508  27799.197121      0.164022                    
P  9  13220.349709   7526.535193  21685.344003    270.432458                    
V  9 -13134.217143  24441.671779   -526.099945      0.150316                    
P 10 -16187.256252   -155.590840 -20918.607893    -64.408680                    
V 10 -13146.748493 -23475.225432   9930.600029     -0.095995                    
P 11  14220.247104 -12384.114696  18705.416379   -703.519766                    
V 11  23635.260605   2316.208813 -16513.256061     -0.069380                    
P 12  -9424.950301 -24626.637449  -3670.081960   -521.693011                    
V 12   4322.632275   2661.155436 -31298.443801     -0.031043                    
P 13  13115.670570 -22466.197005  -4893.609472    664.090425                    
V 13   5690.054256  -3159.697336  31348.914996      0.024878                    
P 14  18029.344134   3985.903826 -19127.793357    447.154131                    
V 14  10607.799428  21969.354227  14328.978960      0.089330                    
P 15    613.579016 -24332.443791 -10911.170774    180.317277                    
V 15   7596.082153 -11269.448492  26996.131143      0.042493                    
P 16  -3673.172945  19682.761829  16886.968123   -238.660417                    
V 16 -11480.206854 -19192.271845  19926.633407      0.106187                    
P 17  18689.000166  -7169.049324 -17123.113635    678.878946                    
V 17 -10892.819498  19730.597048 -19513.900350     -0.074199                    
P 18 -24316.944760  -6318.936822   8944.561217   -635.749742                    
V 18  11280.885516  -1903.185952  29163.435680     -0.041053                    
P 19  19437.414879 -14059.829033 -11105.899441    509.444294                    
V 19  -6087.967671  12834.688991 -27716.001187      0.053985                    
P 20   5818.897690 -15730.818387  20689.009193    372.839727                    
V 20  17643.107118  19273.659929   9573.273075     -0.004102                    
P 21   2959.192987  14767.644791 -21475.512678    109.392467                    
V 21 -28158.124042   2519.387568  -1095.464875     -0.025071                    
P 22  14339.718607  -4704.962640 -21425.075083    -38.729760                    
V 22  11740.363893  25666.674237   2464.355625     -0.045709                    
P 23 -18914.893378 -11970.158382 -14430.858121    272.125013                    
V 23  -8372.760616 -16287.418539  24240.000068      0.089315                    
P 24  -6322.136703 -15194.398793 -21324.945159   -482.795138                    
V 24  25959.740858  -3154.194652  -5147.391481     -0.016903                    
P 25 -16814.052189 -19898.069429   5507.422204    498.439849                    
V 25  -1385.674000  -7805.430567 -30306.660604      0.003836                    
P 26 -12740.104044   9330.483435  21198.354537    121.198372                    
V 26 -15949.776489 -22284.252002    590.579892     -0.068550                    
P 27 -12391.505789  23226.529626   -648.999561    -30.940711                    
V 27  -2991.371770  -1105.942419  32042.415001     -0.009391                    
P 28 -25399.305062   5112.363111   5840.670553   -328.299592                    
V 28  -7532.436004  -2406.045317 -30597.900591     -0.159605                    
P 29 -10108.609470 -11496.746102  21641.306094   -589.883628                    
V 29  15724.982269 -22664.002005  -4805.665620      0.019281                    
P 30  26689.941412   -622.549445   -552.197040   -358.995277                    
V 30    903.857789   3390.268784  30994.834176      0.064861                    
P 31 -19020.897373  10569.569068  15273.336972   -226.815859                    
V 31 -19617.674958  -2232.644648 -22180.691687      0.002880                    
P 32 -18313.494445   9570.927931 -16360.469481   -612.513677                    
V 32   8541.006097 -19562.503935 -20928.939921      0.019105                    
EOF
